O3B FM5                 
1 39188U 13031A   24303.40406182 -.00000022  00000+0  00000+0 0  9997
2 39188   0.0680 356.7346 0002539 222.0434 141.2098  5.00115205207233
O3B FM4                 
1 39189U 13031B   24303.65944997 -.00000021  00000+0  00000+0 0  9995
2 39189   0.0403 356.6553 0002513 221.8542 141.4789  5.00115114207266
O3B FM2                 
1 39190U 13031C   24303.35148362 -.00000022  00000+0  00000+0 0  9997
2 39190   0.0354 354.8447 0002553 225.4746 139.6678  5.00115660207302
O3B PFM                 
1 39191U 13031D   24299.37898674 -.00000029  00000+0  00000+0 0  9999
2 39191   0.0593 358.4064 0002636 218.3639 143.2156  5.00115019206654
O3B FM3                 
1 40079U 14038A   24303.83144291 -.00000021  00000+0  00000+0 0  9992
2 40079   0.0480 355.9799 0005081 230.0974 133.8871  5.00114778188359
O3B FM7                 
1 40080U 14038B   24302.37847047 -.00000024  00000+0  00000+0 0  9994
2 40080   0.0453 351.4786 0000753 228.7642 139.7570  5.00115182188019
O3B FM6                 
1 40081U 14038C   24303.40508885 -.00000022  00000+0  00000+0 0  9992
2 40081   0.0472 356.8565 0002665 223.7108 139.4190  5.00115519188021
O3B FM8                 
1 40082U 14038D   24303.45857322 -.00000022  00000+0  00000+0 0  9991
2 40082   0.0467 355.7878 0002724 220.0903 144.1098  5.00115591188143
O3B FM10                
1 40348U 14083A   24302.08575688 -.00000025  00000+0  00000+0 0  9999
2 40348   0.0552   1.5690 0002626 216.6393 141.7782  5.00115721180023
O3B FM11                
1 40349U 14083B   24302.29886547 -.00000025  00000+0  00000+0 0  9992
2 40349   0.0563 356.7966 0002054 231.5038 131.6874  5.00115658180056
O3B FM12                
1 40350U 14083C   24302.12625965 -.00000025  00000+0  00000+0 0  9991
2 40350   0.0554 357.2448 0002614 224.2234 138.5172  5.00115714180058
O3B FM9                 
1 40351U 14083D   24302.35279142 -.00000024  00000+0  00000+0 0  9998
2 40351   0.0570 355.7261 0002575 222.7152 141.5456  5.00115366180211
LEO 1 (LEO VANTAGE 1)   
1 43113U 18004C   24303.79897237  .00009054  00000+0  65636-3 0  9995
2 43113  99.2991 133.8654 0370819  99.0512 265.2835 14.62407905350284
O3B FM15                
1 43231U 18024A   24300.42039902 -.00000028  00000+0  00000+0 0  9995
2 43231   0.0551   5.2445 0002831 215.4628 139.2758  5.00115036121075
O3B FM16                
1 43232U 18024B   24300.47305153 -.00000028  00000+0  00000+0 0  9995
2 43232   0.0562   9.5020 0002772 211.1173 139.3643  5.00115413120999
O3B FM14                
1 43233U 18024C   24294.11697681 -.00000023  00000+0  00000+0 0  9994
2 43233   0.0548  10.5883 0002762 197.9532 151.4488  5.00114922120684
O3B FM13                
1 43234U 18024D   24294.57009524 -.00000024  00000+0  00000+0 0  9999
2 43234   0.0583 341.1095 0003078 243.7054 135.1654  5.00115164120821
O3B FM20                
1 44112U 19020A   24303.73774740 -.00000021  00000+0  00000+0 0  9997
2 44112   0.0544   1.6040 0002714 229.2972 129.0810  5.00115119101786
O3B FM19                
1 44113U 19020B   24302.96551652 -.00000023  00000+0  00000+0 0  9999
2 44113   0.0628 353.5772 0001376 205.8841 160.5392  5.00115320101610
O3B FM17                
1 44114U 19020C   24303.44503072 -.00000022  00000+0  00000+0 0  9996
2 44114   0.0411  19.3747 0002873 203.1910 137.4180  5.00114962101722
O3B FM18                
1 44115U 19020D   24302.19187052 -.00000025  00000+0  00000+0 0  9997
2 44115   0.0549   1.5059 0002885 218.6198 139.8583  5.00114834101783
SALSAT                  
1 46495U 20068K   24303.64592799  .00021188  00000+0  10799-2 0  9994
2 46495  97.8333 266.7476 0011630 203.5446 156.5255 15.16737255224667
O3B MPOWER F1           
1 54755U 22174A   24303.25040194 -.00000022  00000+0  00000+0 0  9992
2 54755   0.0484 346.3272 0006381 221.6113 119.0981  5.00113423 35540
O3B MPOWER F2           
1 54756U 22174B   24303.20194487 -.00000022  00000+0  00000+0 0  9993
2 54756   0.0445 346.5436 0005762 233.7269 139.6928  5.00113712 35629
O3B MPOWER F4           
1 56367U 23059A   24302.90244340 -.00000023  00000+0  00000+0 0  9997
2 56367   0.0637 354.3133 0006016 207.3846 158.2822  5.00117039 28778
O3B MPOWER F3           
1 56368U 23059B   24303.76868822 -.00000021  00000+0  00000+0 0  9998
2 56368   0.0649 354.8104 0006165 228.1364 137.0114  5.00114923 28976
